[{"OBJECT_NAME":"STARLINK-35194","OBJECT_ID":"2025-211V","EPOCH":"2026-03-09T16:04:17.948352","MEAN_MOTION":15.0565103,"ECCENTRICITY":3.623e-5,"INCLINATION":97.6041,"RA_OF_ASC_NODE":114.1197,"ARG_OF_PERICENTER":163.8944,"MEAN_ANOMALY":196.2295,"EPHEMERIS_TYPE":0,"CLASSIFICATION_TYPE":"U","NORAD_CAT_ID":65671,"ELEMENT_SET_NO":999,"REV_AT_EPOCH":2704,"BSTAR":0.00037937304,"MEAN_MOTION_DOT":5.418e-5,"MEAN_MOTION_DDOT":0},{"OBJECT_NAME":"CZ-4B R\/B","OBJECT_ID":"2008-053C","EPOCH":"2026-03-09T16:52:55.405920","MEAN_MOTION":15.20774751,"ECCENTRICITY":0.00860777,"INCLINATION":97.7895,"RA_OF_ASC_NODE":133.277,"ARG_OF_PERICENTER":241.1085,"MEAN_ANOMALY":118.1494,"EPHEMERIS_TYPE":0,"CLASSIFICATION_TYPE":"U","NORAD_CAT_ID":33410,"ELEMENT_SET_NO":999,"REV_AT_EPOCH":94950,"BSTAR":0.00029822835,"MEAN_MOTION_DOT":7.181e-5,"MEAN_MOTION_DDOT":0}]
